{
  "type": "FeatureCollection",
  "name": "CycloneX_Demo_Infrastructure",
  "crs": {
    "type": "name",
    "properties": {
      "name": "urn:ogc:def:crs:OGC:1.3:CRS84"
    }
  },
  "features": [
    {
      "type": "Feature",
      "properties": {
        "id": "INFRA-HOSP-01",
        "name": "District Headquarters Hospital Puri",
        "type": "hospital",
        "criticality": 95,
        "capacity": 450,
        "backup_power": true,
        "administrative_area": "Puri District, Odisha",
        "elevation_m": 4.5,
        "distance_to_coast_km": 1.8,
        "source": "Demo Open Health Facility Registry",
        "data_classification": "DEMO DATA",
        "last_verified": "2026-09-20"
      },
      "geometry": {
        "type": "Point",
        "coordinates": [85.828, 19.805]
      }
    },
    {
      "type": "Feature",
      "properties": {
        "id": "INFRA-HOSP-02",
        "name": "Paradip Port Trust Hospital",
        "type": "hospital",
        "criticality": 95,
        "capacity": 180,
        "backup_power": true,
        "administrative_area": "Jagatsinghpur District, Odisha",
        "elevation_m": 3.2,
        "distance_to_coast_km": 2.1,
        "source": "Demo Open Health Facility Registry",
        "data_classification": "DEMO DATA",
        "last_verified": "2026-09-18"
      },
      "geometry": {
        "type": "Point",
        "coordinates": [86.685, 20.298]
      }
    },
    {
      "type": "Feature",
      "properties": {
        "id": "INFRA-HOSP-03",
        "name": "AIIMS Bhubaneswar Regional Trauma Centre",
        "type": "hospital",
        "criticality": 98,
        "capacity": 960,
        "backup_power": true,
        "administrative_area": "Khordha District, Odisha",
        "elevation_m": 38.0,
        "distance_to_coast_km": 54.0,
        "source": "Demo Open Health Facility Registry",
        "data_classification": "DEMO DATA",
        "last_verified": "2026-09-25"
      },
      "geometry": {
        "type": "Point",
        "coordinates": [85.776, 20.228]
      }
    },
    {
      "type": "Feature",
      "properties": {
        "id": "INFRA-HOSP-04",
        "name": "Community Health Centre Astaranga",
        "type": "primary_health_centre",
        "criticality": 90,
        "capacity": 60,
        "backup_power": false,
        "administrative_area": "Puri District, Odisha",
        "elevation_m": 2.8,
        "distance_to_coast_km": 3.4,
        "source": "Demo Open Health Facility Registry",
        "data_classification": "DEMO DATA",
        "last_verified": "2026-09-15"
      },
      "geometry": {
        "type": "Point",
        "coordinates": [86.265, 19.978]
      }
    },
    {
      "type": "Feature",
      "properties": {
        "id": "INFRA-PWR-01",
        "name": "Paradip 400/220kV Grid Substation",
        "type": "power_station",
        "criticality": 95,
        "capacity": 600,
        "administrative_area": "Jagatsinghpur District, Odisha",
        "elevation_m": 3.8,
        "distance_to_coast_km": 4.2,
        "source": "Demo Power Grid Inventory",
        "data_classification": "DEMO DATA",
        "last_verified": "2026-09-21"
      },
      "geometry": {
        "type": "Point",
        "coordinates": [86.634, 20.312]
      }
    },
    {
      "type": "Feature",
      "properties": {
        "id": "INFRA-PWR-02",
        "name": "Samuka Coastal Power Switching Station",
        "type": "electricity_substation",
        "criticality": 90,
        "capacity": 220,
        "administrative_area": "Puri District, Odisha",
        "elevation_m": 2.9,
        "distance_to_coast_km": 1.5,
        "source": "Demo Power Grid Inventory",
        "data_classification": "DEMO DATA",
        "last_verified": "2026-09-19"
      },
      "geometry": {
        "type": "Point",
        "coordinates": [85.795, 19.782]
      }
    },
    {
      "type": "Feature",
      "properties": {
        "id": "INFRA-SHTR-01",
        "name": "Astaranga Multipurpose Cyclone Shelter",
        "type": "emergency_shelter",
        "criticality": 92,
        "capacity": 1500,
        "has_food_store": true,
        "administrative_area": "Puri District, Odisha",
        "elevation_m": 4.1,
        "distance_to_coast_km": 2.2,
        "source": "Demo Disaster Management Authority Inventory",
        "data_classification": "DEMO DATA",
        "last_verified": "2026-09-24"
      },
      "geometry": {
        "type": "Point",
        "coordinates": [86.278, 19.985]
      }
    },
    {
      "type": "Feature",
      "properties": {
        "id": "INFRA-SHTR-02",
        "name": "Konark Coastal Cyclone Relief Shelter",
        "type": "emergency_shelter",
        "criticality": 90,
        "capacity": 1200,
        "has_food_store": true,
        "administrative_area": "Puri District, Odisha",
        "elevation_m": 5.2,
        "distance_to_coast_km": 2.9,
        "source": "Demo Disaster Management Authority Inventory",
        "data_classification": "DEMO DATA",
        "last_verified": "2026-09-24"
      },
      "geometry": {
        "type": "Point",
        "coordinates": [86.115, 19.892]
      }
    },
    {
      "type": "Feature",
      "properties": {
        "id": "INFRA-SHTR-03",
        "name": "Ersama Block Cyclone Relief Shelter",
        "type": "emergency_shelter",
        "criticality": 92,
        "capacity": 2000,
        "has_food_store": true,
        "administrative_area": "Jagatsinghpur District, Odisha",
        "elevation_m": 2.6,
        "distance_to_coast_km": 4.8,
        "source": "Demo Disaster Management Authority Inventory",
        "data_classification": "DEMO DATA",
        "last_verified": "2026-09-22"
      },
      "geometry": {
        "type": "Point",
        "coordinates": [86.442, 20.185]
      }
    },
    {
      "type": "Feature",
      "properties": {
        "id": "INFRA-BRG-01",
        "name": "Mahanadi Estuary Lifeline Bridge",
        "type": "bridge",
        "criticality": 88,
        "capacity": 3000,
        "administrative_area": "Jagatsinghpur District, Odisha",
        "elevation_m": 3.5,
        "distance_to_coast_km": 5.2,
        "source": "Demo Highway Transport Agency",
        "data_classification": "DEMO DATA",
        "last_verified": "2026-09-17"
      },
      "geometry": {
        "type": "Point",
        "coordinates": [86.582, 20.274]
      }
    },
    {
      "type": "Feature",
      "properties": {
        "id": "INFRA-BRG-02",
        "name": "Kushabhadra River Coastal Bridge",
        "type": "bridge",
        "criticality": 85,
        "capacity": 2500,
        "administrative_area": "Puri District, Odisha",
        "elevation_m": 4.0,
        "distance_to_coast_km": 3.1,
        "source": "Demo Highway Transport Agency",
        "data_classification": "DEMO DATA",
        "last_verified": "2026-09-17"
      },
      "geometry": {
        "type": "Point",
        "coordinates": [86.052, 19.864]
      }
    },
    {
      "type": "Feature",
      "properties": {
        "id": "INFRA-ROAD-01",
        "name": "NH-316 Puri-Bhubaneswar Evacuation Arterial Highway",
        "type": "major_road",
        "criticality": 85,
        "length_km": 58.0,
        "administrative_area": "Puri - Khordha, Odisha",
        "elevation_m": 8.0,
        "distance_to_coast_km": 12.0,
        "source": "Demo Highway Transport Agency",
        "data_classification": "DEMO DATA",
        "last_verified": "2026-09-20"
      },
      "geometry": {
        "type": "LineString",
        "coordinates": [
          [85.831, 19.814],
          [85.845, 19.892],
          [85.862, 19.985],
          [85.850, 20.082],
          [85.835, 20.175],
          [85.822, 20.252]
        ]
      }
    },
    {
      "type": "Feature",
      "properties": {
        "id": "INFRA-WTR-01",
        "name": "Puri Urban Water Treatment & Pumping Station",
        "type": "water_facility",
        "criticality": 90,
        "capacity": 85,
        "administrative_area": "Puri District, Odisha",
        "elevation_m": 3.7,
        "distance_to_coast_km": 2.4,
        "source": "Demo Municipal Water Board",
        "data_classification": "DEMO DATA",
        "last_verified": "2026-09-23"
      },
      "geometry": {
        "type": "Point",
        "coordinates": [85.841, 19.818]
      }
    },
    {
      "type": "Feature",
      "properties": {
        "id": "INFRA-PORT-01",
        "name": "Paradip Major Deepwater Seaport",
        "type": "airport",
        "criticality": 85,
        "capacity": 15000,
        "administrative_area": "Jagatsinghpur District, Odisha",
        "elevation_m": 2.5,
        "distance_to_coast_km": 0.5,
        "source": "Demo Port & Maritime Authority",
        "data_classification": "DEMO DATA",
        "last_verified": "2026-09-24"
      },
      "geometry": {
        "type": "Point",
        "coordinates": [86.702, 20.265]
      }
    },
    {
      "type": "Feature",
      "properties": {
        "id": "INFRA-TEL-01",
        "name": "Puri Coastal Emergency Telecom Tower",
        "type": "communication_facility",
        "criticality": 88,
        "coverage_km": 35.0,
        "administrative_area": "Puri District, Odisha",
        "elevation_m": 5.0,
        "distance_to_coast_km": 1.2,
        "source": "Demo Telecom Infrastructure Registry",
        "data_classification": "DEMO DATA",
        "last_verified": "2026-09-19"
      },
      "geometry": {
        "type": "Point",
        "coordinates": [85.820, 19.799]
      }
    },
    {
      "type": "Feature",
      "properties": {
        "id": "INFRA-GOV-01",
        "name": "Odisha Disaster Emergency Operations Centre (EOC)",
        "type": "government_facility",
        "criticality": 75,
        "capacity": 250,
        "administrative_area": "Bhubaneswar, Odisha",
        "elevation_m": 42.0,
        "distance_to_coast_km": 52.0,
        "source": "Demo Public Administration Directory",
        "data_classification": "DEMO DATA",
        "last_verified": "2026-09-25"
      },
      "geometry": {
        "type": "Point",
        "coordinates": [85.832, 20.288]
      }
    }
  ]
}
